{"type": "FeatureCollection", "features": [ {"type": "Feature", "properties": {"norad_id": 54234, "name": "NOAA 21 (JPSS-2)", "group": "weather", "lat": -70.17122532443939, "lon": 76.50592307837942, "alt_km": 835.6078682110629, "timestamp": "2025-12-11T10:53:15.526474+00:00", "meta": {"OBJECT_NAME": "NOAA 21 (JPSS-2)", "OBJECT_ID": "2022-150A", "EPOCH": "2025-12-11T02:56:13.042752", "MEAN_MOTION": 14.19523527, "ECCENTRICITY": 0.0002274, "INCLINATION": 98.746, "RA_OF_ASC_NODE": 281.4508, "ARG_OF_PERICENTER": 41.108, "MEAN_ANOMALY": 319.0267, "EPHEMERIS_TYPE": 0, "CLASSIFICATION_TYPE": "U", "NORAD_CAT_ID": 54234, "ELEMENT_SET_NO": 999, "REV_AT_EPOCH": 15986, "BSTAR": 0.00010144, "MEAN_MOTION_DOT": 1.7e-06, "MEAN_MOTION_DDOT": 0}, "tle": {"line1": "1 54234U 22150A   25345.12237318  .00000170  00000+0  10144-3 0  9994", "line2": "2 54234  98.7460 281.4508 0002274  41.1080 319.0267 14.19523527159867"}}, "geometry": {"type": "Point", "coordinates": [76.50592307837942, -70.17122532443939]}}, {"type": "Feature", "properties": {"norad_id": 54743, "name": "METEOSAT-12 (MTG-I1)", "group": "weather", "lat": -0.4598979512280111, "lon": -116.52301903797517, "alt_km": 35779.70748499975, "timestamp": "2025-12-11T10:53:15.526486+00:00", "meta": {"OBJECT_NAME": "METEOSAT-12 (MTG-I1)", "OBJECT_ID": "2022-170C", "EPOCH": "2025-12-11T03:14:13.816032", "MEAN_MOTION": 1.00268535, "ECCENTRICITY": 0.0001807, "INCLINATION": 0.6851, "RA_OF_ASC_NODE": 23.3256, "ARG_OF_PERICENTER": 236.6793, "MEAN_ANOMALY": 228.4159, "EPHEMERIS_TYPE": 0, "CLASSIFICATION_TYPE": "U", "NORAD_CAT_ID": 54743, "ELEMENT_SET_NO": 999, "REV_AT_EPOCH": 1109, "BSTAR": 0, "MEAN_MOTION_DOT": -2e-08, "MEAN_MOTION_DDOT": 0}, "tle": {"line1": "1 54743U 22170C   25345.13488213 -.00000002  00000+0  00000+0 0  9995", "line2": "2 54743   0.6851  23.3256 0001807 236.6793 228.4159  1.00268535 11090"}}, "geometry": {"type": "Point", "coordinates": [-116.52301903797517, -0.4598979512280111]}}, {"type": "Feature", "properties": {"norad_id": 55973, "name": "TIANMU-1 03", "group": "weather", "lat": -23.140576462689605, "lon": 151.30182451057632, "alt_km": 449.0165681407407, "timestamp": "2025-12-11T10:53:15.526498+00:00", "meta": {"OBJECT_NAME": "TIANMU-1 03", "OBJECT_ID": "2023-039A", "EPOCH": "2025-12-11T04:45:15.846048", "MEAN_MOTION": 15.40849188, "ECCENTRICITY": 0.0004473, "INCLINATION": 97.511, "RA_OF_ASC_NODE": 147.8067, "ARG_OF_PERICENTER": 65.6884, "MEAN_ANOMALY": 294.4829, "EPHEMERIS_TYPE": 0, "CLASSIFICATION_TYPE": "U", "NORAD_CAT_ID": 55973, "ELEMENT_SET_NO": 999, "REV_AT_EPOCH": 15182, "BSTAR": 0.00056653, "MEAN_MOTION_DOT": 0.00023205, "MEAN_MOTION_DDOT": 0}, "tle": {"line1": "1 55973U 23039A   25345.19810007  .00023205  00000+0  56653-3 0  9990", "line2": "2 55973  97.5110 147.8067 0004473  65.6884 294.4829 15.40849188151825"}}, "geometry": {"type": "Point", "coordinates": [151.30182451057632, -23.140576462689605]}}, {"type": "Feature", "properties": {"norad_id": 55974, "name": "TIANMU-1 04", "group": "weather", "lat": 82.45404372426506, "lon": 62.92999127461863, "alt_km": 432.0405377217512, "timestamp": "2025-12-11T10:53:15.526526+00:00", "meta": {"OBJECT_NAME": "TIANMU-1 04", "OBJECT_ID": "2023-039B", "EPOCH": "2025-12-11T04:16:09.067008", "MEAN_MOTION": 15.41184057, "ECCENTRICITY": 0.0005151, "INCLINATION": 97.5042, "RA_OF_ASC_NODE": 146.9777, "ARG_OF_PERICENTER": 60.9726, "MEAN_ANOMALY": 299.2035, "EPHEMERIS_TYPE": 0, "CLASSIFICATION_TYPE": "U", "NORAD_CAT_ID": 55974, "ELEMENT_SET_NO": 999, "REV_AT_EPOCH": 15182, "BSTAR": 0.00058226, "MEAN_MOTION_DOT": 0.00024123, "MEAN_MOTION_DDOT": 0}, "tle": {"line1": "1 55974U 23039B   25345.17788272  .00024123  00000+0  58226-3 0  9995", "line2": "2 55974  97.5042 146.9777 0005151  60.9726 299.2035 15.41184057151825"}}, "geometry": {"type": "Point", "coordinates": [62.92999127461863, 82.45404372426506]}}, {"type": "Feature", "properties": {"norad_id": 55975, "name": "TIANMU-1 05", "group": "weather", "lat": 56.27706511323661, "lon": -20.84945337050527, "alt_km": 436.10832777678934, "timestamp": "2025-12-11T10:53:15.526539+00:00", "meta": {"OBJECT_NAME": "TIANMU-1 05", "OBJECT_ID": "2023-039C", "EPOCH": "2025-12-11T04:07:18.735168", "MEAN_MOTION": 15.40805067, "ECCENTRICITY": 0.0004386, "INCLINATION": 97.5089, "RA_OF_ASC_NODE": 147.4637, "ARG_OF_PERICENTER": 82.6563, "MEAN_ANOMALY": 277.5181, "EPHEMERIS_TYPE": 0, "CLASSIFICATION_TYPE": "U", "NORAD_CAT_ID": 55975, "ELEMENT_SET_NO": 999, "REV_AT_EPOCH": 15180, "BSTAR": 0.00055045, "MEAN_MOTION_DOT": 0.00022509, "MEAN_MOTION_DDOT": 0}, "tle": {"line1": "1 55975U 23039C   25345.17174462  .00022509  00000+0  55045-3 0  9998", "line2": "2 55975  97.5089 147.4637 0004386  82.6563 277.5181 15.40805067151806"}}, "geometry": {"type": "Point", "coordinates": [-20.84945337050527, 56.27706511323661]}}, {"type": "Feature", "properties": {"norad_id": 55976, "name": "TIANMU-1 06", "group": "weather", "lat": 74.93431817714942, "lon": 118.87061286395462, "alt_km": 432.08798441728777, "timestamp": "2025-12-11T10:53:15.526550+00:00", "meta": {"OBJECT_NAME": "TIANMU-1 06", "OBJECT_ID": "2023-039D", "EPOCH": "2025-12-11T04:19:21.533376", "MEAN_MOTION": 15.41235784, "ECCENTRICITY": 0.0004721, "INCLINATION": 97.5099, "RA_OF_ASC_NODE": 147.936, "ARG_OF_PERICENTER": 77.9051, "MEAN_ANOMALY": 282.2724, "EPHEMERIS_TYPE": 0, "CLASSIFICATION_TYPE": "U", "NORAD_CAT_ID": 55976, "ELEMENT_SET_NO": 999, "REV_AT_EPOCH": 15182, "BSTAR": 0.00056746, "MEAN_MOTION_DOT": 0.00023545, "MEAN_MOTION_DDOT": 0}, "tle": {"line1": "1 55976U 23039D   25345.18011034  .00023545  00000+0  56746-3 0  9995", "line2": "2 55976  97.5099 147.9360 0004721  77.9051 282.2724 15.41235784151820"}}, "geometry": {"type": "Point", "coordinates": [118.87061286395462, 74.93431817714942]}}, {"type": "Feature", "properties": {"norad_id": 56232, "name": "FENGYUN 3G", "group": "weather", "lat": 49.95802153600446, "lon": -37.77356204485406, "alt_km": 395.6488635819733, "timestamp": "2025-12-11T10:53:15.526561+00:00", "meta": {"OBJECT_NAME": "FENGYUN 3G", "OBJECT_ID": "2023-055A", "EPOCH": "2025-12-11T04:19:56.451936", "MEAN_MOTION": 15.53495979, "ECCENTRICITY": 0.0009292, "INCLINATION": 49.9932, "RA_OF_ASC_NODE": 235.5005, "ARG_OF_PERICENTER": 141.2509, "MEAN_ANOMALY": 218.9126, "EPHEMERIS_TYPE": 0, "CLASSIFICATION_TYPE": "U", "NORAD_CAT_ID": 56232, "ELEMENT_SET_NO": 999, "REV_AT_EPOCH": 15078, "BSTAR": 0.00075653, "MEAN_MOTION_DOT": 0.0004892, "MEAN_MOTION_DDOT": 0}, "tle": {"line1": "1 56232U 23055A   25345.18051449  .00048920  00000+0  75653-3 0  9995", "line2": "2 56232  49.9932 235.5005 0009292 141.2509 218.9126 15.53495979150787"}}, "geometry": {"type": "Point", "coordinates": [-37.77356204485406, 49.95802153600446]}}, {"type": "Feature", "properties": {"norad_id": 57166, "name": "METEOR-M2 3", "group": "weather", "lat": 41.41727732167134, "lon": -133.27815613595408, "alt_km": 810.0721032815936, "timestamp": "2025-12-11T10:53:15.526572+00:00", "meta": {"OBJECT_NAME": "METEOR-M2 3", "OBJECT_ID": "2023-091A", "EPOCH": "2025-12-11T05:11:00.343680", "MEAN_MOTION": 14.24025817, "ECCENTRICITY": 0.0003995, "INCLINATION": 98.638, "RA_OF_ASC_NODE": 38.7819, "ARG_OF_PERICENTER": 13.1194, "MEAN_ANOMALY": 347.0088, "EPHEMERIS_TYPE": 0, "CLASSIFICATION_TYPE": "U", "NORAD_CAT_ID": 57166, "ELEMENT_SET_NO": 999, "REV_AT_EPOCH": 12776, "BSTAR": 3.1932e-05, "MEAN_MOTION_DOT": 3e-07, "MEAN_MOTION_DDOT": 0}, "tle": {"line1": "1 57166U 23091A   25345.21597620  .00000030  00000+0  31932-4 0  9995", "line2": "2 57166  98.6380  38.7819 0003995  13.1194 347.0088 14.24025817127769"}}, "geometry": {"type": "Point", "coordinates": [-133.27815613595408, 41.41727732167134]}}, {"type": "Feature", "properties": {"norad_id": 57399, "name": "TIANMU-1 07", "group": "weather", "lat": -24.037253417918, "lon": -147.94068998637565, "alt_km": 489.19255730490477, "timestamp": "2025-12-11T10:53:15.526582+00:00", "meta": {"OBJECT_NAME": "TIANMU-1 07", "OBJECT_ID": "2023-101A", "EPOCH": "2025-12-11T03:42:39.313152", "MEAN_MOTION": 15.28033268, "ECCENTRICITY": 0.0005614, "INCLINATION": 97.2878, "RA_OF_ASC_NODE": 35.039, "ARG_OF_PERICENTER": 85.6007, "MEAN_ANOMALY": 274.5874, "EPHEMERIS_TYPE": 0, "CLASSIFICATION_TYPE": "U", "NORAD_CAT_ID": 57399, "ELEMENT_SET_NO": 999, "REV_AT_EPOCH": 13291, "BSTAR": 0.00042906, "MEAN_MOTION_DOT": 0.00011671, "MEAN_MOTION_DDOT": 0}, "tle": {"line1": "1 57399U 23101A   25345.15462168  .00011671  00000+0  42906-3 0  9991", "line2": "2 57399  97.2878  35.0390 0005614  85.6007 274.5874 15.28033268132919"}}, "geometry": {"type": "Point", "coordinates": [-147.94068998637565, -24.037253417918]}}, {"type": "Feature", "properties": {"norad_id": 57400, "name": "TIANMU-1 08", "group": "weather", "lat": 25.4806409195949, "lon": 31.633678130054733, "alt_km": 478.5301004222965, "timestamp": "2025-12-11T10:53:15.526592+00:00", "meta": {"OBJECT_NAME": "TIANMU-1 08", "OBJECT_ID": "2023-101B", "EPOCH": "2025-12-11T04:29:19.896576", "MEAN_MOTION": 15.28018033, "ECCENTRICITY": 0.0007553, "INCLINATION": 97.2867, "RA_OF_ASC_NODE": 34.869, "ARG_OF_PERICENTER": 88.1635, "MEAN_ANOMALY": 272.0469, "EPHEMERIS_TYPE": 0, "CLASSIFICATION_TYPE": "U", "NORAD_CAT_ID": 57400, "ELEMENT_SET_NO": 999, "REV_AT_EPOCH": 13291, "BSTAR": 0.00040564, "MEAN_MOTION_DOT": 0.00011028, "MEAN_MOTION_DDOT": 0}, "tle": {"line1": "1 57400U 23101B   25345.18703584  .00011028  00000+0  40564-3 0  9991", "line2": "2 57400  97.2867  34.8690 0007553  88.1635 272.0469 15.28018033132915"}}, "geometry": {"type": "Point", "coordinates": [31.633678130054733, 25.4806409195949]}}]}